XRISM                   
1 57800U 23137A   24296.33739033  .00008849  00000+0  62385-3 0  9995
2 57800  31.0035 281.9326 0008273  27.6431 332.4644 15.03689904 61826
